{
    "links": {
        "self": "http://www.neowsapp.com/rest/v1/neo/3727040?api_key=iIulBulltgU6a56xZRHN4H3l9WmuAYTsLGpBGhQ2"
    },
    "id": "3727040",
    "neo_reference_id": "3727040",
    "name": "(2015 RK35)",
    "designation": "2015 RK35",
    "nasa_jpl_url": "http://ssd.jpl.nasa.gov/sbdb.cgi?sstr=3727040",
    "absolute_magnitude_h": 23.9,
    "estimated_diameter": {
        "kilometers": {
            "estimated_diameter_min": 0.04411182,
            "estimated_diameter_max": 0.0986370281
        },
        "meters": {
            "estimated_diameter_min": 44.1118199997,
            "estimated_diameter_max": 98.6370281305
        },
        "miles": {
            "estimated_diameter_min": 0.0274098057,
            "estimated_diameter_max": 0.0612901888
        },
        "feet": {
            "estimated_diameter_min": 144.7238235278,
            "estimated_diameter_max": 323.6123073718
        }
    },
    "is_potentially_hazardous_asteroid": false,
    "close_approach_data": [
        {
            "close_approach_date": "2015-08-20",
            "close_approach_date_full": "2015-Aug-20 21:44",
            "epoch_date_close_approach": 1440107040000,
            "relative_velocity": {
                "kilometers_per_second": "4.6970616299",
                "kilometers_per_hour": "16909.4218674991",
                "miles_per_hour": "10506.8571598357"
            },
            "miss_distance": {
                "astronomical": "0.1564805556",
                "lunar": "60.8709361284",
                "kilometers": "23409157.814176572",
                "miles": "14545776.1691258136"
            },
            "orbiting_body": "Earth"
        }
    ],
    "orbital_data": {
        "orbit_id": "4",
        "orbit_determination_date": "2017-04-06 08:32:08",
        "first_observation_date": "2015-09-09",
        "last_observation_date": "2015-09-17",
        "data_arc_in_days": 8,
        "observations_used": 15,
        "orbit_uncertainty": "8",
        "minimum_orbit_intersection": ".15436",
        "jupiter_tisserand_invariant": "4.790",
        "epoch_osculation": "2457275.5",
        "eccentricity": ".1698276611879049",
        "semi_major_axis": "1.372754255465319",
        "inclination": "9.069488962659143",
        "ascending_node_longitude": "167.7451836589648",
        "orbital_period": "587.4726123960428",
        "perihelion_distance": "1.1396226108739",
        "perihelion_argument": "135.2047962934521",
        "aphelion_distance": "1.605885900056738",
        "perihelion_time": "2457226.144095400436",
        "mean_anomaly": "30.24502807607432",
        "mean_motion": ".6127945242106149",
        "equinox": "J2000",
        "orbit_class": {
            "orbit_class_type": "AMO",
            "orbit_class_description": "Near-Earth asteroid orbits similar to that of 1221 Amor",
            "orbit_class_range": "1.017 AU < q (perihelion) < 1.3 AU"
        }
    },
    "is_sentry_object": false
}